$$SOE
2461302.500000000, A.D. 2026-Sep-19 00:00:00.0000, 1.104662263970851E+07, -2.248620598750294E+08, 4.030372285183509E+07,
2461309.500000000, A.D. 2026-Sep-26 00:00:00.0000, 2.185770024525907E+07, -2.243551681348953E+08, 3.940662640407298E+07,
2461316.500000000, A.D. 2026-Oct-03 00:00:00.0000, 3.258022187028332E+07, -2.229393189537625E+08, 3.834987372048306E+07,
2461323.500000000, A.D. 2026-Oct-10 00:00:00.0000, 4.317020519056851E+07, -2.206168356220180E+08, 3.713716179070549E+07,
2461330.500000000, A.D. 2026-Oct-17 00:00:00.0000, 5.358291799694205E+07, -2.173888761131481E+08, 3.577203026725566E+07,
2461337.500000000, A.D. 2026-Oct-24 00:00:00.0000, 6.377232382421493E+07, -2.132554954389864E+08, 3.425791410986599E+07,
2461344.500000000, A.D. 2026-Oct-31 00:00:00.0000, 7.369049365503246E+07, -2.082157275401433E+08, 3.259820227733111E+07,
2461351.500000000, A.D. 2026-Nov-07 00:00:00.0000, 8.328696610803951E+07, -2.022676937314808E+08, 3.079630508083422E+07,
2461358.500000000, A.D. 2026-Nov-14 00:00:00.0000, 9.250803592652696E+07, -1.954087472493592E+08, 2.885573367980742E+07,
2461365.500000000, A.D. 2026-Nov-21 00:00:00.0000, 1.012959451063485E+08, -1.876356682267123E+08, 2.678019645948961E+07,
2461372.500000000, A.D. 2026-Nov-28 00:00:00.0000, 1.095879471541737E+08, -1.789449335580056E+08, 2.457371817816155E+07,
2461379.500000000, A.D. 2026-Dec-05 00:00:00.0000, 1.173152135236749E+08, -1.693330930315162E+08, 2.224078968883935E+07,
2461386.500000000, A.D. 2026-Dec-12 00:00:00.0000, 1.244015401559612E+08, -1.587972928508094E+08, 1.978655970947349E+07,
2461393.500000000, A.D. 2026-Dec-19 00:00:00.0000, 1.307618006201656E+08, -1.473360106802961E+08, 1.721708438885197E+07,
2461400.500000000, A.D. 2026-Dec-26 00:00:00.0000, 1.363000832209477E+08, -1.349500968892402E+08, 1.453965641753123E+07,
2461407.500000000, A.D. 2027-Jan-02 00:00:00.0000, 1.409074384572351E+08, -1.216442606473248E+08, 1.176324446586543E+07,
2461414.500000000, A.D. 2027-Jan-09 00:00:00.0000, 1.444591538215235E+08, -1.074292071069516E+08, 8.899086851141635E+06,
2461421.500000000, A.D. 2027-Jan-16 00:00:00.0000, 1.468114722249756E+08, -9.232473549476223E+07, 5.961502336036291E+06,
2461428.500000000, A.D. 2027-Jan-23 00:00:00.0000, 1.477976927576986E+08, -7.636426664078507E+07, 2.969008300452366E+06,
2461435.500000000, A.D. 2027-Jan-30 00:00:00.0000, 1.472236692528230E+08, -5.960151038831332E+07, -5.412497175399214E+04,
2461442.500000000, A.D. 2027-Feb-06 00:00:00.0000, 1.448629193433617E+08, -4.212034544618554E+07, -3.075703475397320E+06,
2461449.500000000, A.D. 2027-Feb-13 00:00:00.0000, 1.404520098264371E+08, -2.404950393789627E+07, -6.052580077021101E+06,
2461456.500000000, A.D. 2027-Feb-20 00:00:00.0000, 1.336878660489208E+08, -5.584327488888477E+06, -8.926474696120808E+06,
2461463.500000000, A.D. 2027-Feb-27 00:00:00.0000, 1.242306836100494E+08, 1.298150266260792E+07, -1.161838783293996E+07,
2461470.500000000, A.D. 2027-Mar-06 00:00:00.0000, 1.117200259496999E+08, 3.121154642856468E+07, -1.402167470879165E+07,
2461477.500000000, A.D. 2027-Mar-13 00:00:00.0000, 9.581831781494652E+07, 4.847008760323849E+07, -1.599494493153993E+07,
2461484.500000000, A.D. 2027-Mar-20 00:00:00.0000, 7.630418123315737E+07, 6.386592107083060E+07, -1.735872654097074E+07,
2461491.500000000, A.D. 2027-Mar-27 00:00:00.0000, 5.323828749259087E+07, 7.623727379365441E+07, -1.790504929209126E+07,
2461498.500000000, A.D. 2027-Apr-03 00:00:00.0000, 2.718811818332686E+07, 8.426110958643237E+07, -1.743416084336843E+07,
2461505.500000000, A.D. 2027-Apr-10 00:00:00.0000, -6.068572319233124E+05, 8.677221562463266E+07, -1.582517769243516E+07,
2461512.500000000, A.D. 2027-Apr-17 00:00:00.0000, -2.835204609728659E+07, 8.322761718897763E+07, -1.311232912014771E+07,
2461519.500000000, A.D. 2027-Apr-24 00:00:00.0000, -5.418328648407529E+07, 7.399864190462896E+07, -9.502244251449265E+06,
2461526.500000000, A.D. 2027-May-01 00:00:00.0000, -7.672390183031853E+07, 6.020987079642313E+07, -5.303045782060798E+06,
2461533.500000000, A.D. 2027-May-08 00:00:00.0000, -9.531827611129539E+07, 4.327148538304578E+07, -8.214371506325640E+05,
2461540.500000000, A.D. 2027-May-15 00:00:00.0000, -1.099071184085931E+08, 2.447588217021805E+07, 3.701794137491596E+06,
2461547.500000000, A.D. 2027-May-22 00:00:00.0000, -1.207753104536383E+08, 4.824069082197167E+06, 8.104765316133283E+06,
2461554.500000000, A.D. 2027-May-29 00:00:00.0000, -1.283467784121495E+08, -1.497902574506730E+07, 1.229009204499357E+07,
2461561.500000000, A.D. 2027-Jun-05 00:00:00.0000, -1.330661622694154E+08, -3.446335266779868E+07, 1.620488959422343E+07,
2461568.500000000, A.D. 2027-Jun-12 00:00:00.0000, -1.353448979003657E+08, -5.332591650418157E+07, 1.982435618781096E+07,
2461575.500000000, A.D. 2027-Jun-19 00:00:00.0000, -1.355430243075677E+08, -7.137651287700325E+07, 2.314049467385554E+07,
2461582.500000000, A.D. 2027-Jun-26 00:00:00.0000, -1.339677003076619E+08, -8.849923415596747E+07, 2.615496168270309E+07,
2461589.500000000, A.D. 2027-Jul-03 00:00:00.0000, -1.308783425869116E+08, -1.046265463143276E+08, 2.887470868934002E+07,
2461596.500000000, A.D. 2027-Jul-10 00:00:00.0000, -1.264936533532242E+08, -1.197222065589263E+08, 3.130938063329356E+07,
2461603.500000000, A.D. 2027-Jul-17 00:00:00.0000, -1.209985411092569E+08, -1.337700842835868E+08, 3.346978625892869E+07,
2461610.500000000, A.D. 2027-Jul-24 00:00:00.0000, -1.145502173536143E+08, -1.467668424998309E+08, 3.536701315411721E+07,
2461617.500000000, A.D. 2027-Jul-31 00:00:00.0000, -1.072833092635395E+08, -1.587171287086887E+08, 3.701192853836134E+07,
2461624.500000000, A.D. 2027-Aug-07 00:00:00.0000, -9.931405006808108E+07, -1.696303986392732E+08, 3.841491037683675E+07,
2461631.500000000, A.D. 2027-Aug-14 00:00:00.0000, -9.074368255491573E+07, -1.795188088198256E+08, 3.958571570962544E+07,
2461638.500000000, A.D. 2027-Aug-21 00:00:00.0000, -8.166121740765615E+07, -1.883958168425434E+08, 4.053342978592198E+07,
2461645.500000000, A.D. 2027-Aug-28 00:00:00.0000, -7.214567107615346E+07, -1.962752512529498E+08, 4.126646200107218E+07,
2461652.500000000, A.D. 2027-Sep-04 00:00:00.0000, -6.226789184600239E+07, -2.031706934135066E+08, 4.179256857467096E+07,
2461659.500000000, A.D. 2027-Sep-11 00:00:00.0000, -5.209206270485802E+07, -2.090950695149219E+08, 4.211888979035684E+07,
2461666.500000000, A.D. 2027-Sep-18 00:00:00.0000, -4.167695054858553E+07, -2.140603851283078E+08, 4.225199443362319E+07,
2461673.500000000, A.D. 2027-Sep-25 00:00:00.0000, -3.107695688970791E+07, -2.180775565858191E+08, 4.219792714225364E+07,
2461680.500000000, A.D. 2027-Oct-02 00:00:00.0000, -2.034301410100373E+07, -2.211563082994685E+08, 4.196225629469398E+07,
2461687.500000000, A.D. 2027-Oct-09 00:00:00.0000, -9.523362570818510E+06, -2.233051152175662E+08, 4.155012126606256E+07,
2461694.500000000, A.D. 2027-Oct-16 00:00:00.0000, 1.335762493022117E+06, -2.245311765265048E+08, 4.096627864626093E+07,
2461701.500000000, A.D. 2027-Oct-23 00:00:00.0000, 1.218951099701980E+07, -2.248404114247647E+08, 4.021514750696210E+07,
2461708.500000000, A.D. 2027-Oct-30 00:00:00.0000, 2.299384470384966E+07, -2.242374706152108E+08, 3.930085420834224E+07,
2461715.500000000, A.D. 2027-Nov-06 00:00:00.0000, 3.370499174569181E+07, -2.227257592228241E+08, 3.822727770587522E+07,
2461722.500000000, A.D. 2027-Nov-13 00:00:00.0000, 4.427891053992688E+07, -2.203074720855336E+08, 3.699809636607008E+07,
2461729.500000000, A.D. 2027-Nov-20 00:00:00.0000, 5.467075035832732E+07, -2.169836442674127E+08, 3.561683708356622E+07,
2461736.500000000, A.D. 2027-Nov-27 00:00:00.0000, 6.483429455652763E+07, -2.127542163817137E+08, 3.408692838257251E+07,
2461743.500000000, A.D. 2027-Dec-04 00:00:00.0000, 7.472136804977560E+07, -2.076181185995363E+08, 3.241175986856144E+07,
2461750.500000000, A.D. 2027-Dec-11 00:00:00.0000, 8.428119038030490E+07, -2.015733818079001E+08, 3.059475075256269E+07,
2461757.500000000, A.D. 2027-Dec-18 00:00:00.0000, 9.345965392295536E+07, -1.946172871823565E+08, 2.863943094519979E+07,
2461764.500000000, A.D. 2027-Dec-25 00:00:00.0000, 1.021985030647894E+08, -1.867465697829973E+08, 2.654953936238752E+07,
2461771.500000000, A.D. 2028-Jan-01 00:00:00.0000, 1.104343853030286E+08, -1.779576984404387E+08, 2.432914567910209E+07,
$$EOE